SL-16 R/B               
1 23405U 94077B   26204.01788031  .00000295  00000+0  17532-3 0  9999
2 23405  70.9822  67.7811 0004247 297.4660  62.6031 14.15577030635381
ARIANE 40+ R/B          
1 23561U 95021B   26204.18987135  .00000197  00000+0  76458-4 0  9990
2 23561  98.4394 273.7417 0007983  96.2546 322.6166 14.39850800638748
SL-16 R/B               
1 23705U 95058B   26204.17269954  .00000216  00000+0  13466-3 0  9992
2 23705  71.0202 255.8061 0014778 272.6593  87.2838 14.15513476587024
SL-16 R/B               
1 24298U 96051B   26204.14920152  .00000156  00000+0  11102-3 0  9993
2 24298  70.7638 248.5447 0018333 287.8378  72.0742 14.12459743540778
ORBVIEW 2 (SEASTAR)     
1 24883U 97037A   26204.05424451  .00000179  00000+0  78472-4 0  9998
2 24883  98.8722  12.0737 0002765  44.6065 315.5341 14.35569579527895
SL-16 R/B               
1 25400U 98043G   26204.21584851  .00000045  00000+0  37794-4 0  9995
2 25400  98.8384 158.6892 0009617 348.2293  11.8660 14.26073806458305
SL-16 R/B               
1 25407U 98045B   26204.18779295  .00000236  00000+0  14345-3 0  9996
2 25407  71.0097 256.6200 0007745 195.0141 165.0754 14.16206396446289
ISS (ZARYA)             
1 25544U 98067A   26204.18538858  .00009623  00000+0  18183-3 0  9993
2 25544  51.6313 121.9488 0006905 328.2241  31.8329 15.49110422577336
CZ-4B R/B               
1 25732U 99025C   26204.10982418  .00000012  00000+0  26698-4 0  9998
2 25732  98.6467 245.0411 0036267 316.5643  66.7300 14.18288621407363
OKEAN-O                 
1 25860U 99039A   26204.16837983  .00000464  00000+0  67410-4 0  9995
2 25860  97.9293 262.5494 0000928 102.3598 257.7718 14.80503869454432
SL-16 R/B               
1 25861U 99039B   26204.15680111  .00000421  00000+0  59959-4 0  9996
2 25861  97.9815 262.9133 0014960 172.3789 187.7654 14.81876595456924
DELTA 2 R/B             
1 25876U 99041E   26204.20285951  .00001485  00000+0  27714-3 0  9998
2 25876  51.7616 119.8980 0501479  28.3969 334.3343 14.12108782382173
HELIOS 1B               
1 25977U 99064A   26204.08636309  .00001124  00000+0  12861-3 0  9995
2 25977  98.1574 110.2603 0001566  45.4959 314.6384 14.88089704705395
TERRA                   
1 25994U 99068A   26204.24709906  .00000310  00000+0  72008-4 0  9996
2 25994  97.9435 252.3598 0003654 107.0530 328.4031 14.61128256414877
SL-16 R/B               
1 26070U 00006B   26204.16762857  .00000340  00000+0  19679-3 0  9998
2 26070  71.0014 172.9696 0017550 328.8850  31.1232 14.15840697367735
TITAN 4B R/B            
1 26474U 00047B   26204.08735166  .00002827  00000+0  17607-3 0  9996
2 26474  67.9892  19.5064 0045706 250.8284 108.7916 15.10362893413358
ENVISAT                 
1 27386U 02009A   26204.28611816  .00000067  00000+0  35656-4 0  9995
2 27386  98.3851 154.8032 0001290  82.1746  85.6718 14.39072136278676
IDEFIX & ARIANE 42P R/B 
1 27422U 02021B   26204.27657403  .00000167  00000+0  79777-4 0  9994
2 27422  98.5942 141.3697 0012367 143.4401 216.7629 14.31096465263411
AQUA                    
1 27424U 02022A   26204.18565110  .00000627  00000+0  13450-3 0  9996
2 27424  98.4303 174.1934 0001364 102.1719 315.6143 14.62137104288530
CZ-4B R/B               
1 27432U 02024C   26204.17357735  .00000010  00000+0  28237-4 0  9994
2 27432  98.8678 256.7561 0050052 359.3750  67.5663 14.14569129248393
MIDORI II (ADEOS-II)    
1 27597U 02056A   26203.27864614  .00000171  00000+0  84929-4 0  9998
2 27597  98.7899 162.8411 0001171  31.5357 328.5895 14.29365534229521
H-2A R/B                
1 27601U 02056E   26204.31956625  .00000226  00000+0  93501-4 0  9991
2 27601  98.3333 159.6810 0071242 117.0369  48.7746 14.33837314233540
CZ-4B R/B               
1 28059U 03049C   26203.98828055  .00000257  00000+0  70467-4 0  9999
2 28059  98.6916 204.2632 0048119 177.3910 182.7546 14.55119786206272
CZ-2C R/B               
1 28222U 04012C   26204.19413049  .00172298  00000+0  64998-3 0  9995
2 28222  97.7022 284.2648 0010276 167.2657 192.8875 15.87227485225591
SL-16 R/B               
1 28353U 04021B   26204.22433816 -.00000221  00000+0 -90232-4 0  9997
2 28353  71.0026 308.0594 0006014 217.3099 142.7606 14.14615307142005
CZ-4B R/B               
1 28415U 04035C   26204.08327852  .00007775  00000+0  25805-3 0  9999
2 28415  97.3357 236.7602 0029958 203.6660 156.3205 15.31071800200615
CZ-2C R/B               
1 28480U 04046B   26204.16147835  .00000112  00000+0  56037-4 0  9993
2 28480  98.1906 110.6870 0140482 113.9730 247.6234 14.27035215127821
ARIANE 5 R/B            
1 28499U 04049H   26204.10002517  .00000508  00000+0  62691-4 0  9999
2 28499  98.2748  17.7477 0082498 272.2527  86.9242 14.85485755165895
CZ-2D R/B               
1 28738U 05024B   26204.32125205  .00070120  00000+0  49988-3 0  9993
2 28738  97.3473 225.6614 0003783 173.0250 187.1068 15.73603251161011
ALOS (DAICHI)           
1 28931U 06002A   26203.82420302  .00000841  00000+0  14823-3 0  9998
2 28931  98.1342 159.2860 0001015 110.4947 249.6367 14.70113169 93334
