OBJECT_NAME,OBJECT_ID,EPOCH,MEAN_MOTION,ECCENTRICITY,INCLINATION,RA_OF_ASC_NODE,ARG_OF_PERICENTER,MEAN_ANOMALY,EPHEMERIS_TYPE,CLASSIFICATION_TYPE,NORAD_CAT_ID,ELEMENT_SET_NO,REV_AT_EPOCH,BSTAR,MEAN_MOTION_DOT,MEAN_MOTION_DDOT
SL-16 R/B,1994-077B,2026-07-23T00:25:44.858784,14.15577030,.00042477,70.9822,67.7811,297.4660,62.6031,0,U,23405,999,63538,.17531699E-3,.295E-5,0
ARIANE 40+ R/B,1995-021B,2026-07-23T04:33:24.884640,14.39850800,.00079835,98.4394,273.7417,96.2546,322.6166,0,U,23561,999,63874,.76458012E-4,.197E-5,0
SL-16 R/B,1995-058B,2026-07-23T04:08:41.240256,14.15513476,.00147788,71.0202,255.8061,272.6593,87.2838,0,U,23705,999,58702,.13466212E-3,.216E-5,0
SL-16 R/B,1996-051B,2026-07-23T03:34:51.011328,14.12459743,.00183337,70.7638,248.5447,287.8378,72.0742,0,U,24298,999,54077,.11102458E-3,.156E-5,0
ORBVIEW 2 (SEASTAR),1997-037A,2026-07-23T01:18:06.725664,14.35569579,.00027656,98.8722,12.0737,44.6065,315.5341,0,U,24883,999,52789,.78471749E-4,.179E-5,0
SL-16 R/B,1998-043G,2026-07-23T05:10:49.311264,14.26073806,.00096179,98.8384,158.6892,348.2293,11.8660,0,U,25400,999,45830,.37794064E-4,.45E-6,0
SL-16 R/B,1998-045B,2026-07-23T04:30:25.310880,14.16206396,.00077454,71.0097,256.6200,195.0141,165.0754,0,U,25407,999,44628,.14344949E-3,.236E-5,0
ISS (ZARYA),1998-067A,2026-07-23T04:26:57.573312,15.49110422,.00069055,51.6313,121.9488,328.2241,31.8329,0,U,25544,999,57733,.18182545E-3,.9623E-4,0
CZ-4B R/B,1999-025C,2026-07-23T02:38:08.809152,14.18288621,.00362677,98.6467,245.0411,316.5643,66.7300,0,U,25732,999,40736,.26697924E-4,.12E-6,0
OKEAN-O,1999-039A,2026-07-23T04:02:28.017312,14.80503869,.00009285,97.9293,262.5494,102.3598,257.7718,0,U,25860,999,45443,.67409782E-4,.464E-5,0
SL-16 R/B,1999-039B,2026-07-23T03:45:47.615904,14.81876595,.00149609,97.9815,262.9133,172.3789,187.7654,0,U,25861,999,45692,.59959306E-4,.421E-5,0
DELTA 2 R/B,1999-041E,2026-07-23T04:52:07.061664,14.12108782,.05014791,51.7616,119.8980,28.3969,334.3343,0,U,25876,999,38217,.27714285E-3,.1485E-4,0
HELIOS 1B,1999-064A,2026-07-23T02:04:21.770976,14.88089704,.00015662,98.1574,110.2603,45.4959,314.6384,0,U,25977,999,70539,.1286127E-3,.1124E-4,0
TERRA,1999-068A,2026-07-23T05:55:49.358784,14.61128256,.00036546,97.9435,252.3598,107.0530,328.4031,0,U,25994,999,41487,.72007717E-4,.31E-5,0
SL-16 R/B,2000-006B,2026-07-23T04:01:23.108448,14.15840697,.00175507,71.0014,172.9696,328.8850,31.1232,0,U,26070,999,36773,.19678549E-3,.34E-5,0
TITAN 4B R/B,2000-047B,2026-07-23T02:05:47.183424,15.10362893,.00457064,67.9892,19.5064,250.8284,108.7916,0,U,26474,999,41335,.17606811E-3,.2827E-4,0
ENVISAT,2002-009A,2026-07-23T06:52:00.609024,14.39072136,.000129,98.3851,154.8032,82.1746,85.6718,0,U,27386,999,27867,.35656469E-4,.67E-6,0
IDEFIX & ARIANE 42P R/B,2002-021B,2026-07-23T06:38:15.996192,14.31096465,.00123675,98.5942,141.3697,143.4401,216.7629,0,U,27422,999,26341,.79777158E-4,.167E-5,0
AQUA,2002-022A,2026-07-23T04:27:20.255040,14.62137104,.00013644,98.4303,174.1934,102.1719,315.6143,0,U,27424,999,28853,.13449878E-3,.627E-5,0
CZ-4B R/B,2002-024C,2026-07-23T04:09:57.083040,14.14569129,.00500529,98.8678,256.7561,359.3750,67.5663,0,U,27432,999,24839,.28237232E-4,.1E-6,0
MIDORI II (ADEOS-II),2002-056A,2026-07-22T06:41:15.026496,14.29365534,.0001171,98.7899,162.8411,31.5357,328.5895,0,U,27597,999,22952,.84928649E-4,.171E-5,0
H-2A R/B,2002-056E,2026-07-23T07:40:10.524000,14.33837314,.00712428,98.3333,159.6810,117.0369,48.7746,0,U,27601,999,23354,.93500884E-4,.226E-5,0
CZ-4B R/B,2003-049C,2026-07-22T23:43:07.439520,14.55119786,.00481193,98.6916,204.2632,177.3910,182.7546,0,U,28059,999,20627,.70466904E-4,.257E-5,0
CZ-2C R/B,2004-012C,2026-07-23T04:39:32.874336,15.87227485,.00102769,97.7022,284.2648,167.2657,192.8875,0,U,28222,999,22559,.64998201E-3,.172298E-2,0
SL-16 R/B,2004-021B,2026-07-23T05:23:02.817024,14.14615307,.00060144,71.0026,308.0594,217.3099,142.7606,0,U,28353,999,14200,-.9023193E-4,-.221E-5,0
CZ-4B R/B,2004-035C,2026-07-23T01:59:55.264128,15.31071800,.0029958,97.3357,236.7602,203.6660,156.3205,0,U,28415,999,20061,.25804526E-3,.7775E-4,0
CZ-2C R/B,2004-046B,2026-07-23T03:52:31.729440,14.27035215,.0140482,98.1906,110.6870,113.9730,247.6234,0,U,28480,999,12782,.56037153E-4,.112E-5,0
ARIANE 5 R/B,2004-049H,2026-07-23T02:24:02.174688,14.85485755,.00824984,98.2748,17.7477,272.2527,86.9242,0,U,28499,999,16589,.62691421E-4,.508E-5,0
CZ-2D R/B,2005-024B,2026-07-23T07:42:36.177120,15.73603251,.00037834,97.3473,225.6614,173.0250,187.1068,0,U,28738,999,16101,.49988026E-3,.7012E-3,0
ALOS (DAICHI),2006-002A,2026-07-22T19:46:51.140928,14.70113169,.0001015,98.1342,159.2860,110.4947,249.6367,0,U,28931,999,9333,.1482274E-3,.841E-5,0
